
# Worst residual: 71.68 km
# MJD 60170.000000 (2023 Aug 14  0:00)
C1AUGE1 = ZTF0Edd = 'Multijunk'
1 89983U 00000AAQ 23226.49919926  .00000000  00000-0  00000-0 0 18665
2 89983 017.6980 027.5062 8021060 121.4525 134.1934 00.38522716    08

# Worst residual: 76.15 km
# MJD 60171.000000 (2023 Aug 15  0:00)
C1AUGE1 = ZTF0Edd = 'Multijunk'
1 89983U 00000AAQ 23227.49919926  .00000000  00000-0  00000-0 0 18666
2 89983 017.6376 027.7938 8040544 121.6325 270.8900 00.38681475    08

# Worst residual: 195.28 km
# MJD 60172.000000 (2023 Aug 16  0:00)
C1AUGE1 = ZTF0Edd = 'Multijunk'
1 89983U 00000AAQ 23228.49919926  .00000000  00000-0  00000-0 0 18667
2 89983 017.5952 027.9031 8068783 122.4863 050.4593 00.39003401    02

# Worst residual: 83.41 km
# MJD 60173.000000 (2023 Aug 17  0:00)
C1AUGE1 = ZTF0Edd = 'Multijunk'
1 89983U 00000AAQ 23229.49919926  .00000000  00000-0  00000-0 0 18668
2 89983 017.5565 028.2809 8061201 122.7361 187.4948 00.38505986    02

# Worst residual: 168.99 km
# MJD 60174.000000 (2023 Aug 18  0:00)
C1AUGE1 = ZTF0Edd = 'Multijunk'
1 89983U 00000AAQ 23230.49919926  .00000000  00000-0  00000-0 0 18660
2 89983 017.4723 028.5576 8102467 123.2668 324.8694 00.39148863    00

# Worst residual: 82.81 km
# MJD 60175.000000 (2023 Aug 19  0:00)
C1AUGE1 = ZTF0Edd = 'Multijunk'
1 89983U 00000AAQ 23231.49919926  .00000000  00000-0  00000-0 0 18661
2 89983 017.4654 028.6783 8092498 124.0045 104.2149 00.38629606    07

# Worst residual: 97.01 km
# MJD 60176.000000 (2023 Aug 20  0:00)
C1AUGE1 = ZTF0Edd = 'Multijunk'
1 89983U 00000AAQ 23232.49919926  .00000000  00000-0  00000-0 0 18662
2 89983 017.3965 029.0665 8109816 124.0891 240.6685 00.38607404    09

# Worst residual: 177.53 km
# MJD 60177.000000 (2023 Aug 21  0:00)
C1AUGE1 = ZTF0Edd = 'Multijunk'
1 89983U 00000AAQ 23233.49919926  .00000000  00000-0  00000-0 0 18663
2 89983 017.3383 029.1462 8135838 124.8711 019.7964 00.39393628    07

# Worst residual: 101.22 km
# MJD 60178.000000 (2023 Aug 22  0:00)
C1AUGE1 = ZTF0Edd = 'Multijunk'
1 89983U 00000AAQ 23234.49919926  .00000000  00000-0  00000-0 0 18664
2 89983 017.3250 029.4268 8130702 125.3782 157.4045 00.38524842    09

# Worst residual: 93.80 km
# MJD 60179.000000 (2023 Aug 23  0:00)
C1AUGE1 = ZTF0Edd = 'Multijunk'
1 89983U 00000AAQ 23235.49919926  .00000000  00000-0  00000-0 0 18665
2 89983 017.2549 029.6939 8152986 125.6852 294.0486 00.38845249    09

# Worst residual: 90.38 km
# MJD 60180.000000 (2023 Aug 24  0:00)
C1AUGE1 = ZTF0Edd = 'Multijunk'
1 89983U 00000AAQ 23236.49919926  .00000000  00000-0  00000-0 0 18666
2 89983 017.2430 029.7437 8160804 126.6861 073.7294 00.38809860    09

# Worst residual: 104.66 km
# MJD 60181.000000 (2023 Aug 25  0:00)
C1AUGE1 = ZTF0Edd = 'Multijunk'
1 89983U 00000AAQ 23237.49919926  .00000000  00000-0  00000-0 0 18667
2 89983 017.2013 030.0062 8165861 126.9189 210.3345 00.38546850    02

# Worst residual: 153.02 km
# MJD 60182.000000 (2023 Aug 26  0:00)
C1AUGE1 = ZTF0Edd = 'Multijunk'
1 89983U 00000AAQ 23238.49919926  .00000000  00000-0  00000-0 0 18668
2 89983 017.1604 030.1158 8191104 127.6735 348.2954 00.39425199    08

# Worst residual: 106.44 km
# MJD 60183.000000 (2023 Aug 27  0:00)
C1AUGE1 = ZTF0Edd = 'Multijunk'
1 89983U 00000AAQ 23239.49919926  .00000000  00000-0  00000-0 0 18669
2 89983 017.1528 030.2661 8188998 128.2512 127.0982 00.38594310    05

# Worst residual: 89.67 km
# MJD 60184.000000 (2023 Aug 28  0:00)
C1AUGE1 = ZTF0Edd = 'Multijunk'
1 89983U 00000AAQ 23240.49919926  .00000000  00000-0  00000-0 0 18661
2 89983 017.0993 030.5047 8206926 128.4956 263.5789 00.38692071    01

# Worst residual: 189.09 km
# MJD 60185.000000 (2023 Aug 29  0:00)
C1AUGE1 = ZTF0Edd = 'Multijunk'
1 89983U 00000AAQ 23241.49919926  .00000000  00000-0  00000-0 0 18662
2 89983 017.0775 030.5073 8235080 129.3816 043.2314 00.39130649    02

# Worst residual: 126.10 km
# MJD 60186.000000 (2023 Aug 30  0:00)
C1AUGE1 = ZTF0Edd = 'Multijunk'
1 89983U 00000AAQ 23242.49919926  .00000000  00000-0  00000-0 0 18663
2 89983 017.0502 030.7563 8226137 129.8838 179.8597 00.38473638    04

# Worst residual: 187.33 km
# MJD 60187.000000 (2023 Aug 31  0:00)
C1AUGE1 = ZTF0Edd = 'Multijunk'
1 89983U 00000AAQ 23243.49919926  .00000000  00000-0  00000-0 0 18664
2 89983 017.0150 030.8656 8264842 130.5511 316.6516 00.39060130    01

# Worst residual: 103.38 km
# MJD 60188.000000 (2023 Sep  1  0:00)
C1AUGE1 = ZTF0Edd = 'Multijunk'
1 89983U 00000AAQ 23244.49919926  .00000000  00000-0  00000-0 0 18665
2 89983 017.0171 030.8549 8252071 131.4769 096.2493 00.38709106    08

# Worst residual: 118.69 km
# MJD 60189.000000 (2023 Sep  2  0:00)
C1AUGE1 = ZTF0Edd = 'Multijunk'
1 89983U 00000AAQ 23245.49919926  .00000000  00000-0  00000-0 0 18666
2 89983 017.0231 030.8490 8249871 131.9688 232.5551 00.38564413    09

# Worst residual: 153.39 km
# MJD 60190.000000 (2023 Sep  3  0:00)
C1AUGE1 = ZTF0Edd = 'Multijunk'
1 89983U 00000AAQ 23246.49919926  .00000000  00000-0  00000-0 0 18667
2 89983 017.0380 030.8207 8267322 132.8004 011.2484 00.39471190    00

# Worst residual: 110.04 km
# MJD 60191.000000 (2023 Sep  4  0:00)
C1AUGE1 = ZTF0Edd = 'Multijunk'
1 89983U 00000AAQ 23247.49919926  .00000000  00000-0  00000-0 0 18668
2 89983 017.0337 030.8651 8259974 133.5087 149.3158 00.38565454    05

# Worst residual: 98.03 km
# MJD 60192.000000 (2023 Sep  5  0:00)
C1AUGE1 = ZTF0Edd = 'Multijunk'
1 89983U 00000AAQ 23248.49919926  .00000000  00000-0  00000-0 0 18669
2 89983 017.0269 030.8931 8275144 133.9841 285.9645 00.38801155    08

# Worst residual: 114.98 km
# MJD 60193.000000 (2023 Sep  6  0:00)
C1AUGE1 = ZTF0Edd = 'Multijunk'
1 89983U 00000AAQ 23249.49919926  .00000000  00000-0  00000-0 0 18660
2 89983 017.0315 030.8676 8286327 134.9777 065.6666 00.38897574    06

# Worst residual: 118.69 km
# MJD 60194.000000 (2023 Sep  7  0:00)
C1AUGE1 = ZTF0Edd = 'Multijunk'
1 89983U 00000AAQ 23250.49919926  .00000000  00000-0  00000-0 0 18662
2 89983 017.0264 030.9110 8282541 135.4634 202.3946 00.38545210    03

# Worst residual: 177.98 km
# MJD 60195.000000 (2023 Sep  8  0:00)
C1AUGE1 = ZTF0Edd = 'Multijunk'
1 89983U 00000AAQ 23251.49919926  .00000000  00000-0  00000-0 0 18663
2 89983 017.0331 030.8961 8308318 136.2862 340.0557 00.39343628    02

# Worst residual: 121.84 km
# MJD 60196.000000 (2023 Sep  9  0:00)
C1AUGE1 = ZTF0Edd = 'Multijunk'
1 89983U 00000AAQ 23252.49919926  .00000000  00000-0  00000-0 0 18664
2 89983 017.0435 030.8423 8297542 137.0959 119.2270 00.38639335    02

# Worst residual: 112.86 km
# MJD 60197.000000 (2023 Sep 10  0:00)
C1AUGE1 = ZTF0Edd = 'Multijunk'
1 89983U 00000AAQ 23253.49919926  .00000000  00000-0  00000-0 0 18665
2 89983 017.0616 030.7901 8302155 137.6165 255.5746 00.38651990    08
